{"type":"FeatureCollection","features":[{"type":"Feature","geometry":{"type":"Point","coordinates":[40.89,34.549444444444]},"properties":{"qid":"Q244762","name":"Mari","start":-2423,"end":-2300,"wikipedia":"https://en.wikipedia.org/wiki/Mari%2C_Syria"}},{"type":"Feature","geometry":{"type":"Point","coordinates":[37.15,36.2]},"properties":{"qid":"Q617218","name":"Yamhad","start":-1765,"end":-1764,"wikipedia":"https://en.wikipedia.org/wiki/Yamhad"}},{"type":"Feature","geometry":{"type":"Point","coordinates":[35.184444444444445,32.585277777777776]},"properties":{"qid":"Q733364","name":"Battle of Megiddo","start":-1457,"end":-1456,"wikipedia":"https://en.wikipedia.org/wiki/Battle_of_Megiddo_%2815th_century_BC%29"}},{"type":"Feature","geometry":{"type":"Point","coordinates":[42,42.26666667]},"properties":{"qid":"Q183150","name":"Colchis","start":-757,"end":-723,"wikipedia":"https://en.wikipedia.org/wiki/Colchis"}},{"type":"Feature","geometry":{"type":"Point","coordinates":[35.099825,31.532569]},"properties":{"qid":"Q48685","name":"Kingdom of Judah","start":-733,"end":-733,"wikipedia":"https://en.wikipedia.org/wiki/Kingdom_of_Judah"}},{"type":"Feature","geometry":{"type":"Point","coordinates":[30,40]},"properties":{"qid":"Q620765","name":"Lydia","start":-625,"end":-615,"wikipedia":"https://en.wikipedia.org/wiki/Lydia"}},{"type":"Feature","geometry":{"type":"Point","coordinates":[38.015,36.8297]},"properties":{"qid":"Q633560","name":"Battle of Carchemish","start":-605,"end":-605,"wikipedia":"https://en.wikipedia.org/wiki/Battle_of_Carchemish"}},{"type":"Feature","geometry":{"type":"Point","coordinates":[21.633333333333333,32.28333333333333]},"properties":{"qid":"Q165198","name":"Cyrenaica","start":-570,"end":-570,"wikipedia":"https://en.wikipedia.org/wiki/Cyrenaica"}},{"type":"Feature","geometry":{"type":"Point","coordinates":[44.42083333,32.53638889]},"properties":{"qid":"Q389688","name":"Achaemenid Empire","start":-550,"end":-330,"wikipedia":"https://en.wikipedia.org/wiki/Achaemenid_Empire"}},{"type":"Feature","geometry":{"type":"Point","coordinates":[9.55267913,42.1041973]},"properties":{"qid":"Q764673","name":"Battle of Alalia","start":-540,"end":-540,"wikipedia":"https://en.wikipedia.org/wiki/Battle_of_Alalia"}},{"type":"Feature","geometry":{"type":"Point","coordinates":[44.7,33.18138888888889]},"properties":{"qid":"Q3434300","name":"Battle of Opis","start":-539,"end":-539,"wikipedia":"https://en.wikipedia.org/wiki/Battle_of_Opis"}},{"type":"Feature","geometry":{"type":"Point","coordinates":[12.5,41.9]},"properties":{"qid":"Q17167","name":"Roman Republic","start":-509,"end":-27,"wikipedia":"https://en.wikipedia.org/wiki/Roman_Republic"}},{"type":"Feature","geometry":{"type":"Point","coordinates":[13.811388888888889,37.971666666666664]},"properties":{"qid":"Q1138660","name":"Battle of Himera","start":-480,"end":-480,"wikipedia":"https://en.wikipedia.org/wiki/Battle_of_Himera_%28480_BC%29"}},{"type":"Feature","geometry":{"type":"Point","coordinates":[12.4245,42.028817]},"properties":{"qid":"Q2487876","name":"Battle of the Cremera","start":-477,"end":-477,"wikipedia":"https://en.wikipedia.org/wiki/Battle_of_the_Cremera"}},{"type":"Feature","geometry":{"type":"Point","coordinates":[22.423611111111,37.081944444444]},"properties":{"qid":"Q5690","name":"Sparta","start":-477,"end":-463,"wikipedia":"https://en.wikipedia.org/wiki/Sparta"}},{"type":"Feature","geometry":{"type":"Point","coordinates":[14.053611111111111,40.84861111111111]},"properties":{"qid":"Q1892581","name":"Battle of Cumae","start":-474,"end":-474,"wikipedia":"https://en.wikipedia.org/wiki/Battle_of_Cumae_%28474_BC%29"}},{"type":"Feature","geometry":{"type":"Point","coordinates":[23.728055555555557,37.98416666666667]},"properties":{"qid":"Q1524","name":"Athens","start":-472,"end":-471,"wikipedia":"https://en.wikipedia.org/wiki/Athens"}},{"type":"Feature","geometry":{"type":"Point","coordinates":[26,42]},"properties":{"qid":"Q41741","name":"Thrace","start":-465,"end":-464,"wikipedia":"https://en.wikipedia.org/wiki/Thrace"}},{"type":"Feature","geometry":{"type":"Point","coordinates":[22.43,37.08]},"properties":{"qid":"Q3555032","name":"464 BC Sparta earthquake","start":-464,"end":-464,"wikipedia":"https://en.wikipedia.org/wiki/464_BC_Sparta_earthquake"}},{"type":"Feature","geometry":{"type":"Point","coordinates":[24,38.5]},"properties":{"qid":"Q173096","name":"Euboea","start":-446,"end":-446,"wikipedia":"https://en.wikipedia.org/wiki/Euboea"}},{"type":"Feature","geometry":{"type":"Point","coordinates":[26.833333333333332,37.75]},"properties":{"qid":"Q926514","name":"Samian War","start":-440,"end":-439,"wikipedia":"https://en.wikipedia.org/wiki/Samian_War"}},{"type":"Feature","geometry":{"type":"Point","coordinates":[12.52,42.0175]},"properties":{"qid":"Q655777","name":"Battle of the Allia","start":-390,"end":-390,"wikipedia":"https://en.wikipedia.org/wiki/Battle_of_the_Allia"}},{"type":"Feature","geometry":{"type":"Point","coordinates":[23.166666666666668,38.26555555555556]},"properties":{"qid":"Q461599","name":"Battle of Leuctra","start":-371,"end":-371,"wikipedia":"https://en.wikipedia.org/wiki/Battle_of_Leuctra"}},{"type":"Feature","geometry":{"type":"Point","coordinates":[22.4,37.6]},"properties":{"qid":"Q233399","name":"Battle of Mantinea","start":-362,"end":-362,"wikipedia":"https://en.wikipedia.org/wiki/Battle_of_Mantinea_%28362_BC%29"}},{"type":"Feature","geometry":{"type":"Point","coordinates":[22.8475,38.495]},"properties":{"qid":"Q200716","name":"Battle of Chaeronea","start":-338,"end":-338,"wikipedia":"https://en.wikipedia.org/wiki/Battle_of_Chaeronea_%28338_BC%29"}},{"type":"Feature","geometry":{"type":"Point","coordinates":[22.1422,37.4011]},"properties":{"qid":"Q223220","name":"Battle of Megalopolis","start":-331,"end":-331,"wikipedia":"https://en.wikipedia.org/wiki/Battle_of_Megalopolis"}},{"type":"Feature","geometry":{"type":"Point","coordinates":[28,36.166666666667]},"properties":{"qid":"Q648993","name":"Siege of Rhodes","start":-305,"end":-304,"wikipedia":"https://en.wikipedia.org/wiki/Siege_of_Rhodes_%28305%E2%80%93304_BC%29"}},{"type":"Feature","geometry":{"type":"Point","coordinates":[-4.2392,40.24]},"properties":{"qid":"Q11915292","name":"Barcid conquest of Hispania","start":-237,"end":-206,"wikipedia":"https://en.wikipedia.org/wiki/Barcid_conquest_of_Hispania"}},{"type":"Feature","geometry":{"type":"Point","coordinates":[22.3522,37.3497]},"properties":{"qid":"Q1474893","name":"Cleomenean War","start":-229,"end":-222,"wikipedia":"https://en.wikipedia.org/wiki/Cleomenean_War"}},{"type":"Feature","geometry":{"type":"Point","coordinates":[66.898888888,36.758055555]},"properties":{"qid":"Q7509836","name":"Siege of Bactra","start":-208,"end":-206,"wikipedia":"https://en.wikipedia.org/wiki/Siege_of_Bactra"}},{"type":"Feature","geometry":{"type":"Point","coordinates":[35,39]},"properties":{"qid":"Q1616064","name":"Mithridatic Wars","start":-88,"end":-63,"wikipedia":"https://en.wikipedia.org/wiki/Mithridatic_Wars"}},{"type":"Feature","geometry":{"type":"Point","coordinates":[8.125833333333333,52.4075]},"properties":{"qid":"Q87779","name":"Battle of the Teutoburg Forest","start":9,"end":9,"wikipedia":"https://en.wikipedia.org/wiki/Battle_of_the_Teutoburg_Forest"}},{"type":"Feature","geometry":{"type":"Point","coordinates":[-45.4167,61]},"properties":{"qid":"Q513705","name":"Eastern Settlement","start":14,"end":14,"wikipedia":"https://en.wikipedia.org/wiki/Eastern_Settlement"}},{"type":"Feature","geometry":{"type":"Point","coordinates":[113.35694444444444,33.62694444444445]},"properties":{"qid":"Q3272217","name":"Battle of Kunyang","start":23,"end":23,"wikipedia":"https://en.wikipedia.org/wiki/Battle_of_Kunyang"}},{"type":"Feature","geometry":{"type":"Point","coordinates":[127.23333333333333,38.31666666666667]},"properties":{"qid":"Q21422559","name":"Korean conflict","start":25,"end":27,"wikipedia":"https://en.wikipedia.org/wiki/Korean_conflict"}},{"type":"Feature","geometry":{"type":"Point","coordinates":[-4.33333333,53.28333333]},"properties":{"qid":"Q3850909","name":"Roman conquest of Anglesey","start":60,"end":60,"wikipedia":"https://en.wikipedia.org/wiki/Roman_conquest_of_Anglesey"}},{"type":"Feature","geometry":{"type":"Point","coordinates":[12.5,41.9]},"properties":{"qid":"Q470596","name":"Year of the Four Emperors","start":68,"end":69,"wikipedia":"https://en.wikipedia.org/wiki/Year_of_the_Four_Emperors"}},{"type":"Feature","geometry":{"type":"Point","coordinates":[21.9,43.3]},"properties":{"qid":"Q929265","name":"Battle of Naissus","start":268,"end":268,"wikipedia":"https://en.wikipedia.org/wiki/Battle_of_Naissus"}},{"type":"Feature","geometry":{"type":"Point","coordinates":[116.52,31.73611111111111]},"properties":{"qid":"Q1333898","name":"Battle of Fei River","start":383,"end":383,"wikipedia":"https://en.wikipedia.org/wiki/Battle_of_Fei_River"}},{"type":"Feature","geometry":{"type":"Point","coordinates":[12.48,41.89]},"properties":{"qid":"Q1463845","name":"410 sack of Rome","start":410,"end":410,"wikipedia":"https://en.wikipedia.org/wiki/Sack_of_Rome_%28410%29"}},{"type":"Feature","geometry":{"type":"Point","coordinates":[45.057091666667,39.338791666667]},"properties":{"qid":"Q734700","name":"Battle of Avarayr","start":451,"end":451,"wikipedia":"https://en.wikipedia.org/wiki/Battle_of_Avarayr"}},{"type":"Feature","geometry":{"type":"Point","coordinates":[19.0166666667,44.9333333333]},"properties":{"qid":"Q841211","name":"Battle of Nedao","start":454,"end":454,"wikipedia":"https://en.wikipedia.org/wiki/Battle_of_Nedao"}},{"type":"Feature","geometry":{"type":"Point","coordinates":[12.5,41.9]},"properties":{"qid":"Q1463832","name":"Sack of Rome","start":455,"end":455,"wikipedia":"https://en.wikipedia.org/wiki/Sack_of_Rome_%28455%29"}},{"type":"Feature","geometry":{"type":"Point","coordinates":[3.323611,49.381667]},"properties":{"qid":"Q39154","name":"Battle of Soissons","start":486,"end":486,"wikipedia":"https://en.wikipedia.org/wiki/Battle_of_Soissons_%28486%29"}},{"type":"Feature","geometry":{"type":"Point","coordinates":[130.55555555555557,33.396388888888886]},"properties":{"qid":"Q3138004","name":"Iwai Rebellion","start":528,"end":527,"wikipedia":"https://en.wikipedia.org/wiki/Iwai_Rebellion"}},{"type":"Feature","geometry":{"type":"Point","coordinates":[36,34]},"properties":{"qid":"Q275918","name":"Muslim conquests","start":622,"end":750,"wikipedia":"https://en.wikipedia.org/wiki/Early_Muslim_conquests"}},{"type":"Feature","geometry":{"type":"Point","coordinates":[40.042027777778,21.516555555556]},"properties":{"qid":"Q2300090","name":"Battle of Hunayn","start":630,"end":630,"wikipedia":"https://en.wikipedia.org/wiki/Battle_of_Hunayn"}},{"type":"Feature","geometry":{"type":"Point","coordinates":[103.58,32.64]},"properties":{"qid":"Q5373924","name":"Emperor Taizong's campaign against Tufan","start":638,"end":638,"wikipedia":"https://en.wikipedia.org/wiki/Tibetan_attack_on_Songzhou"}},{"type":"Feature","geometry":{"type":"Point","coordinates":[28.975,41.0125]},"properties":{"qid":"Q27900","name":"Siege of Constantinople","start":717,"end":718,"wikipedia":"https://en.wikipedia.org/wiki/Siege_of_Constantinople_%28717%E2%80%93718%29"}},{"type":"Feature","geometry":{"type":"Point","coordinates":[72.233333333333,42.525]},"properties":{"qid":"Q492415","name":"Battle of Talas","start":751,"end":751,"wikipedia":"https://en.wikipedia.org/wiki/Battle_of_Talas"}},{"type":"Feature","geometry":{"type":"Point","coordinates":[39.8068,21.4531]},"properties":{"qid":"Q6403042","name":"Battle of Fakhkh","start":786,"end":786,"wikipedia":"https://en.wikipedia.org/wiki/Battle_of_Fakhkh"}},{"type":"Feature","geometry":{"type":"Point","coordinates":[14,37.5]},"properties":{"qid":"Q3687154","name":"Muslim conquest of Sicily","start":827,"end":902,"wikipedia":"https://en.wikipedia.org/wiki/Muslim_conquest_of_Sicily"}},{"type":"Feature","geometry":{"type":"Point","coordinates":[36.70111111111111,39.836666666666666]},"properties":{"qid":"Q335871","name":"Battle of Bathys Ryax","start":872,"end":872,"wikipedia":"https://en.wikipedia.org/wiki/Battle_of_Bathys_Ryax"}},{"type":"Feature","geometry":{"type":"Point","coordinates":[5.67147778,58.94145278]},"properties":{"qid":"Q515561","name":"Battle of Hafrsfjord","start":872,"end":872,"wikipedia":"https://en.wikipedia.org/wiki/Battle_of_Hafrsfjord"}},{"type":"Feature","geometry":{"type":"Point","coordinates":[16.5,45]},"properties":{"qid":"Q854523","name":"Croatian–Bulgarian battle of 927","start":926,"end":926,"wikipedia":"https://en.wikipedia.org/wiki/Croatian%E2%80%93Bulgarian_battle_of_926"}},{"type":"Feature","geometry":{"type":"Point","coordinates":[106.6317,20.8442]},"properties":{"qid":"Q2890760","name":"Battle of Bach Dang River","start":938,"end":938,"wikipedia":"https://en.wikipedia.org/wiki/Battle_of_B%E1%BA%A1ch_%C4%90%E1%BA%B1ng_%28938%29"}},{"type":"Feature","geometry":{"type":"Point","coordinates":[10.92,48.35]},"properties":{"qid":"Q273069","name":"Battle of Lechfeld","start":955,"end":955,"wikipedia":"https://en.wikipedia.org/wiki/Battle_of_Lechfeld"}},{"type":"Feature","geometry":{"type":"Point","coordinates":[17.61416666666667,59.871944444444445]},"properties":{"qid":"Q2664985","name":"Battle of Fýrisvellir","start":980,"end":986,"wikipedia":"https://en.wikipedia.org/wiki/Battle_of_F%C3%BDrisvellir"}},{"type":"Feature","geometry":{"type":"Point","coordinates":[-6.525,53.28]},"properties":{"qid":"Q1992706","name":"Battle of Glenmama","start":999,"end":1000,"wikipedia":"https://en.wikipedia.org/wiki/Battle_of_Glenmama"}},{"type":"Feature","geometry":{"type":"Point","coordinates":[12.75,55.75]},"properties":{"qid":"Q1163186","name":"Battle of Svolder","start":999,"end":999,"wikipedia":"https://en.wikipedia.org/wiki/Battle_of_Svolder"}},{"type":"Feature","geometry":{"type":"Point","coordinates":[71.5675,34.01444444444444]},"properties":{"qid":"Q4872019","name":"Battle of Peshawar","start":1001,"end":1001,"wikipedia":"https://en.wikipedia.org/wiki/Battle_of_Peshawar_%281001%29"}},{"type":"Feature","geometry":{"type":"Point","coordinates":[-2.32083333,55.63694444]},"properties":{"qid":"Q2575960","name":"Battle of Carham","start":1010,"end":1018,"wikipedia":"https://en.wikipedia.org/wiki/Battle_of_Carham"}},{"type":"Feature","geometry":{"type":"Point","coordinates":[-6.1975,53.365]},"properties":{"qid":"Q868027","name":"Battle of Clontarf","start":1014,"end":1014,"wikipedia":"https://en.wikipedia.org/wiki/Battle_of_Clontarf"}},{"type":"Feature","geometry":{"type":"Point","coordinates":[1.254324,47.390249]},"properties":{"qid":"Q2237076","name":"Battle of Pontlevoy","start":1016,"end":1016,"wikipedia":"https://en.wikipedia.org/wiki/Battle_of_Pontlevoy"}},{"type":"Feature","geometry":{"type":"Point","coordinates":[37,36.566667]},"properties":{"qid":"Q2887924","name":"Battle of Azaz","start":1030,"end":1030,"wikipedia":"https://en.wikipedia.org/wiki/Battle_of_Azaz_%281030%29"}},{"type":"Feature","geometry":{"type":"Point","coordinates":[11.566666666667,63.796666666667]},"properties":{"qid":"Q830878","name":"Battle of Stiklestad","start":1030,"end":1030,"wikipedia":"https://en.wikipedia.org/wiki/Battle_of_Stiklestad"}},{"type":"Feature","geometry":{"type":"Point","coordinates":[12.738,49.487]},"properties":{"qid":"Q15844349","name":"Battle at Brůdek","start":1040,"end":1040,"wikipedia":"https://en.wikipedia.org/wiki/Battle_at_Br%C5%AFdek"}},{"type":"Feature","geometry":{"type":"Point","coordinates":[61.345353,37.391933]},"properties":{"qid":"Q26493","name":"Battle of Dandanaqan","start":1040,"end":1040,"wikipedia":"https://en.wikipedia.org/wiki/Battle_of_Dandanaqan"}},{"type":"Feature","geometry":{"type":"Point","coordinates":[140.683,38.9]},"properties":{"qid":"Q1187448","name":"Zenkunen War","start":1051,"end":1063,"wikipedia":"https://en.wikipedia.org/wiki/Former_Nine_Years%27_War"}},{"type":"Feature","geometry":{"type":"Point","coordinates":[-0.116667,42.0333]},"properties":{"qid":"Q1187521","name":"Crusade of Barbastro","start":1064,"end":1064,"wikipedia":"https://en.wikipedia.org/wiki/Crusade_of_Barbastro"}},{"type":"Feature","geometry":{"type":"Point","coordinates":[-0.9125,53.9925]},"properties":{"qid":"Q203225","name":"Battle of Stamford Bridge","start":1066,"end":1066,"wikipedia":"https://en.wikipedia.org/wiki/Battle_of_Stamford_Bridge"}},{"type":"Feature","geometry":{"type":"Point","coordinates":[31.433333,50.05]},"properties":{"qid":"Q2501098","name":"Battle of the Alta River","start":1068,"end":1068,"wikipedia":"https://en.wikipedia.org/wiki/Battle_of_the_Alta_River"}},{"type":"Feature","geometry":{"type":"Point","coordinates":[-8.55638888888889,41.06444444444445]},"properties":{"qid":"Q2889598","name":"Battle of Pedroso","start":1071,"end":1071,"wikipedia":"https://en.wikipedia.org/wiki/Battle_of_Pedroso"}},{"type":"Feature","geometry":{"type":"Point","coordinates":[-4.6598166666667,42.23695]},"properties":{"qid":"Q1243260","name":"Battle of Golpejera","start":1072,"end":1072,"wikipedia":"https://en.wikipedia.org/wiki/Battle_of_Golpejera"}},{"type":"Feature","geometry":{"type":"Point","coordinates":[16.5128,41.0086]},"properties":{"qid":"Q74011","name":"Norman conquest of southern Italy","start":1100,"end":1200,"wikipedia":"https://en.wikipedia.org/wiki/Norman_conquest_of_southern_Italy"}},{"type":"Feature","geometry":{"type":"Point","coordinates":[34.87270833,31.92479444]},"properties":{"qid":"Q13553969","name":"Battle of Ramla","start":1101,"end":1101,"wikipedia":"https://en.wikipedia.org/wiki/Battle_of_Ramla_%281101%29"}},{"type":"Feature","geometry":{"type":"Point","coordinates":[34.873333333333335,31.925]},"properties":{"qid":"Q13553978","name":"Battle of Ramla","start":1102,"end":1102,"wikipedia":"https://en.wikipedia.org/wiki/Battle_of_Ramla_%281102%29"}},{"type":"Feature","geometry":{"type":"Point","coordinates":[44.516667,41.683333]},"properties":{"qid":"Q1192616","name":"Battle of Didgori","start":1121,"end":1121,"wikipedia":"https://en.wikipedia.org/wiki/Battle_of_Didgori"}},{"type":"Feature","geometry":{"type":"Point","coordinates":[0,49]},"properties":{"qid":"Q743768","name":"The Anarchy","start":1135,"end":1154,"wikipedia":"https://en.wikipedia.org/wiki/The_Anarchy"}},{"type":"Feature","geometry":{"type":"Point","coordinates":[34.92,31.86]},"properties":{"qid":"Q847287","name":"Battle of Montgisard","start":1177,"end":1177,"wikipedia":"https://en.wikipedia.org/wiki/Battle_of_Montgisard"}},{"type":"Feature","geometry":{"type":"Point","coordinates":[35.588889,33.358333]},"properties":{"qid":"Q636520","name":"Battle of Marj Ayyun","start":1179,"end":1179,"wikipedia":"https://en.wikipedia.org/wiki/Battle_of_Marj_Ayyun"}},{"type":"Feature","geometry":{"type":"Point","coordinates":[35.52161111,32.59556389]},"properties":{"qid":"Q1836863","name":"Battle of Belvoir Castle","start":1182,"end":1182,"wikipedia":"https://en.wikipedia.org/wiki/Battle_of_Belvoir_Castle"}},{"type":"Feature","geometry":{"type":"Point","coordinates":[35.354527777778,32.735083333333]},"properties":{"qid":"Q577190","name":"Battle of Cresson","start":1187,"end":1187,"wikipedia":"https://en.wikipedia.org/wiki/Battle_of_Cresson"}},{"type":"Feature","geometry":{"type":"Point","coordinates":[35.45955555555555,32.79830555555556]},"properties":{"qid":"Q233568","name":"Battle of Hattin","start":1187,"end":1187,"wikipedia":"https://en.wikipedia.org/wiki/Battle_of_Hattin"}},{"type":"Feature","geometry":{"type":"Point","coordinates":[35.2167,31.7833]},"properties":{"qid":"Q815161","name":"Conquest of Jerusalem","start":1187,"end":1187,"wikipedia":"https://en.wikipedia.org/wiki/Siege_of_Jerusalem_%281187%29"}},{"type":"Feature","geometry":{"type":"Point","coordinates":[3.225,50.58]},"properties":{"qid":"Q830626","name":"Battle of Bouvines","start":1214,"end":1214,"wikipedia":"https://en.wikipedia.org/wiki/Battle_of_Bouvines"}},{"type":"Feature","geometry":{"type":"Point","coordinates":[135.768333,35.0116667]},"properties":{"qid":"Q1372308","name":"Jōkyū War","start":1221,"end":1221,"wikipedia":"https://en.wikipedia.org/wiki/J%C5%8Dky%C5%AB_War"}},{"type":"Feature","geometry":{"type":"Point","coordinates":[27.933333333333334,36.166666666666664]},"properties":{"qid":"Q5533472","name":"Genoese occupation of Rhodes","start":1248,"end":1250,"wikipedia":"https://en.wikipedia.org/wiki/Genoese_occupation_of_Rhodes"}},{"type":"Feature","geometry":{"type":"Point","coordinates":[35.08166667,32.9275]},"properties":{"qid":"Q1305130","name":"War of Saint Sabas","start":1256,"end":1270,"wikipedia":"https://en.wikipedia.org/wiki/War_of_Saint_Sabas"}},{"type":"Feature","geometry":{"type":"Point","coordinates":[-5.211,56.3073]},"properties":{"qid":"Q4872172","name":"Battle of Red Ford","start":1294,"end":1294,"wikipedia":"https://en.wikipedia.org/wiki/Battle_of_Red_Ford"}},{"type":"Feature","geometry":{"type":"Point","coordinates":[8.633,47.09]},"properties":{"qid":"Q326989","name":"Battle of Morgarten","start":1315,"end":1315,"wikipedia":"https://en.wikipedia.org/wiki/Battle_of_Morgarten"}},{"type":"Feature","geometry":{"type":"Point","coordinates":[29.0667,40.1833]},"properties":{"qid":"Q1099263","name":"Siege of Bursa","start":1317,"end":1326,"wikipedia":"https://en.wikipedia.org/wiki/Siege_of_Bursa"}},{"type":"Feature","geometry":{"type":"Point","coordinates":[12.55972222,48.27638889]},"properties":{"qid":"Q688081","name":"Battle of Mühldorf","start":1322,"end":1322,"wikipedia":"https://en.wikipedia.org/wiki/Battle_of_M%C3%BChldorf"}},{"type":"Feature","geometry":{"type":"Point","coordinates":[30.1333,40.5833]},"properties":{"qid":"Q2422839","name":"Siege of Nicaea","start":1328,"end":1331,"wikipedia":"https://en.wikipedia.org/wiki/Siege_of_Nicaea_%281328%E2%80%931331%29"}},{"type":"Feature","geometry":{"type":"Point","coordinates":[29.916666666667,40.766666666667]},"properties":{"qid":"Q2422572","name":"Siege of Nicomedia","start":1333,"end":1337,"wikipedia":"https://en.wikipedia.org/wiki/Siege_of_Nicomedia"}},{"type":"Feature","geometry":{"type":"Point","coordinates":[26.035,40.73055556]},"properties":{"qid":"Q4844238","name":"Battle of Sırp Sındığı","start":1364,"end":1364,"wikipedia":"https://en.wikipedia.org/wiki/Battle_of_S%C4%B1rps%C4%B1nd%C4%B1%C4%9F%C4%B1"}},{"type":"Feature","geometry":{"type":"Point","coordinates":[26.035,40.73055556]},"properties":{"qid":"Q939570","name":"Battle of Maritsa","start":1371,"end":1371,"wikipedia":"https://en.wikipedia.org/wiki/Battle_of_Maritsa"}},{"type":"Feature","geometry":{"type":"Point","coordinates":[28.5167,38.35]},"properties":{"qid":"Q1361240","name":"Fall of Philadelphia","start":1378,"end":1390,"wikipedia":"https://en.wikipedia.org/wiki/Fall_of_Philadelphia"}},{"type":"Feature","geometry":{"type":"Point","coordinates":[38.6535,53.6525]},"properties":{"qid":"Q210354","name":"Battle of Kulikovo","start":1380,"end":1380,"wikipedia":"https://en.wikipedia.org/wiki/Battle_of_Kulikovo"}},{"type":"Feature","geometry":{"type":"Point","coordinates":[21.12,42.63]},"properties":{"qid":"Q179288","name":"Battle of Kosovo","start":1389,"end":1389,"wikipedia":"https://en.wikipedia.org/wiki/Battle_of_Kosovo"}},{"type":"Feature","geometry":{"type":"Point","coordinates":[24.895833333333,43.705833333333]},"properties":{"qid":"Q212220","name":"Battle of Nicopolis","start":1396,"end":1396,"wikipedia":"https://en.wikipedia.org/wiki/Battle_of_Nicopolis"}},{"type":"Feature","geometry":{"type":"Point","coordinates":[3.88333,36.9167]},"properties":{"qid":"Q18008303","name":"Crusade of Tedelis","start":1398,"end":1398,"wikipedia":"https://en.wikipedia.org/wiki/Crusade_of_Tedelis"}},{"type":"Feature","geometry":{"type":"Point","coordinates":[32.95,40.15]},"properties":{"qid":"Q209387","name":"Battle of Ankara","start":1402,"end":1402,"wikipedia":"https://en.wikipedia.org/wiki/Battle_of_Ankara"}},{"type":"Feature","geometry":{"type":"Point","coordinates":[26.8,40.45]},"properties":{"qid":"Q30600045","name":"Battle of Gallipoli","start":1416,"end":1416,"wikipedia":"https://en.wikipedia.org/wiki/Battle_of_Gallipoli_%281416%29"}},{"type":"Feature","geometry":{"type":"Point","coordinates":[28.9769,41.0167]},"properties":{"qid":"Q700886","name":"Siege of Constantinople","start":1422,"end":1422,"wikipedia":"https://en.wikipedia.org/wiki/Siege_of_Constantinople_%281422%29"}},{"type":"Feature","geometry":{"type":"Point","coordinates":[22.945,40.6375]},"properties":{"qid":"Q2426040","name":"Siege of Thessalonica","start":1422,"end":1430,"wikipedia":"https://en.wikipedia.org/wiki/Siege_of_Thessalonica_%281422%E2%80%931430%29"}},{"type":"Feature","geometry":{"type":"Point","coordinates":[9.95,45.65]},"properties":{"qid":"Q2506432","name":"Wars in Lombardy","start":1423,"end":1454,"wikipedia":"https://en.wikipedia.org/wiki/Wars_in_Lombardy"}},{"type":"Feature","geometry":{"type":"Point","coordinates":[21.633333333,44.65]},"properties":{"qid":"Q1007513","name":"Siege of Golubac","start":1428,"end":1428,"wikipedia":"https://en.wikipedia.org/wiki/Siege_of_Golubac"}},{"type":"Feature","geometry":{"type":"Point","coordinates":[14.403017,35.886003]},"properties":{"qid":"Q20706642","name":"Siege of Malta","start":1429,"end":1429,"wikipedia":"https://en.wikipedia.org/wiki/Siege_of_Malta_%281429%29"}},{"type":"Feature","geometry":{"type":"Point","coordinates":[20.36666667,41.76666667]},"properties":{"qid":"Q1934137","name":"Battle of Torvioll","start":1444,"end":1444,"wikipedia":"https://en.wikipedia.org/wiki/Battle_of_Torvioll"}},{"type":"Feature","geometry":{"type":"Point","coordinates":[28,36.166666666667]},"properties":{"qid":"Q48790246","name":"Siege of Rhodes","start":1444,"end":1444,"wikipedia":"https://en.wikipedia.org/wiki/Siege_of_Rhodes_%281444%29"}},{"type":"Feature","geometry":{"type":"Point","coordinates":[115.6,40.383333333333]},"properties":{"qid":"Q1196236","name":"Tumu Crisis","start":1449,"end":1449,"wikipedia":"https://en.wikipedia.org/wiki/Tumu_Crisis"}},{"type":"Feature","geometry":{"type":"Point","coordinates":[28.935,41.03]},"properties":{"qid":"Q160077","name":"Fall of Constantinople","start":1453,"end":1453,"wikipedia":"https://en.wikipedia.org/wiki/Fall_of_Constantinople"}},{"type":"Feature","geometry":{"type":"Point","coordinates":[19.949673,40.704939]},"properties":{"qid":"Q3300177","name":"Siege of Berat","start":1455,"end":1455,"wikipedia":"https://en.wikipedia.org/wiki/Siege_of_Berat_%281455%29"}},{"type":"Feature","geometry":{"type":"Point","coordinates":[20.466666666667,44.816666666667]},"properties":{"qid":"Q244980","name":"Siege of Belgrade","start":1456,"end":1456,"wikipedia":"https://en.wikipedia.org/wiki/Siege_of_Belgrade_%281456%29"}},{"type":"Feature","geometry":{"type":"Point","coordinates":[32.386388888889,41.749444444444]},"properties":{"qid":"Q31190499","name":"Siege of Amasra","start":1460,"end":1460,"wikipedia":"https://en.wikipedia.org/wiki/Siege_of_Amasra"}},{"type":"Feature","geometry":{"type":"Point","coordinates":[39.73,41.005]},"properties":{"qid":"Q9366875","name":"Siege of Trebizond in 1461","start":1460,"end":1461,"wikipedia":"https://en.wikipedia.org/wiki/Siege_of_Trebizond_%281461%29"}},{"type":"Feature","geometry":{"type":"Point","coordinates":[26.5625,39.11138888888889]},"properties":{"qid":"Q20627484","name":"Ottoman conquest of Lesbos","start":1462,"end":1462,"wikipedia":"https://en.wikipedia.org/wiki/Ottoman_conquest_of_Lesbos"}},{"type":"Feature","geometry":{"type":"Point","coordinates":[40.02222222222222,39.97361111111111]},"properties":{"qid":"Q2007212","name":"Battle of Otlukbeli","start":1473,"end":1473,"wikipedia":"https://en.wikipedia.org/wiki/Battle_of_Otlukbeli"}},{"type":"Feature","geometry":{"type":"Point","coordinates":[-99.1375,19.45108333]},"properties":{"qid":"Q387238","name":"Battle of Tlatelolco","start":1473,"end":1473,"wikipedia":"https://en.wikipedia.org/wiki/Battle_of_Tlatelolco"}},{"type":"Feature","geometry":{"type":"Point","coordinates":[28,36.166666666667]},"properties":{"qid":"Q701067","name":"Siege of Rhodes","start":1480,"end":1480,"wikipedia":"https://en.wikipedia.org/wiki/Siege_of_Rhodes_%281480%29"}},{"type":"Feature","geometry":{"type":"Point","coordinates":[136.5,36.4]},"properties":{"qid":"Q10950916","name":"Kaga Rebellion","start":1487,"end":1488,"wikipedia":"https://en.wikipedia.org/wiki/Kaga_Rebellion"}},{"type":"Feature","geometry":{"type":"Point","coordinates":[8.231973,46.798562]},"properties":{"qid":"Q165136","name":"Swabian War","start":1499,"end":1499,"wikipedia":"https://en.wikipedia.org/wiki/Swabian_War"}},{"type":"Feature","geometry":{"type":"Point","coordinates":[9.0719444444444,54.147222222222]},"properties":{"qid":"Q656190","name":"Battle of Hemmingstedt","start":1500,"end":1500,"wikipedia":"https://en.wikipedia.org/wiki/Battle_of_Hemmingstedt"}},{"type":"Feature","geometry":{"type":"Point","coordinates":[10,50]},"properties":{"qid":"Q12548","name":"Holy Roman Empire","start":1505,"end":1506,"wikipedia":"https://en.wikipedia.org/wiki/Holy_Roman_Empire"}},{"type":"Feature","geometry":{"type":"Point","coordinates":[-1.64417,42.8183]},"properties":{"qid":"Q3312328","name":"Spanish conquest of Iberian Navarre","start":1512,"end":1529,"wikipedia":"https://en.wikipedia.org/wiki/Spanish_conquest_of_Iberian_Navarre"}},{"type":"Feature","geometry":{"type":"Point","coordinates":[44.326997222222,39.088852777778]},"properties":{"qid":"Q745110","name":"Battle of Chaldiran","start":1514,"end":1514,"wikipedia":"https://en.wikipedia.org/wiki/Battle_of_Chaldiran"}},{"type":"Feature","geometry":{"type":"Point","coordinates":[-99.13138889,19.435]},"properties":{"qid":"Q13695","name":"Tenochtitlan","start":1516,"end":1516,"wikipedia":"https://en.wikipedia.org/wiki/Tenochtitlan"}},{"type":"Feature","geometry":{"type":"Point","coordinates":[28,36.166666666667]},"properties":{"qid":"Q767935","name":"Siege of Rhodes","start":1522,"end":1522,"wikipedia":"https://en.wikipedia.org/wiki/Siege_of_Rhodes_%281522%29"}},{"type":"Feature","geometry":{"type":"Point","coordinates":[18.647222222222,45.941388888889]},"properties":{"qid":"Q178510","name":"Battle of Mohács","start":1526,"end":1526,"wikipedia":"https://en.wikipedia.org/wiki/Battle_of_Moh%C3%A1cs"}},{"type":"Feature","geometry":{"type":"Point","coordinates":[16.3731,48.2083]},"properties":{"qid":"Q207576","name":"First Turkish Siege of Vienna","start":1529,"end":1529,"wikipedia":"https://en.wikipedia.org/wiki/Siege_of_Vienna_%281529%29"}},{"type":"Feature","geometry":{"type":"Point","coordinates":[-76,-9.4]},"properties":{"qid":"Q1763918","name":"Inca Civil War","start":1529,"end":1532,"wikipedia":"https://en.wikipedia.org/wiki/Inca_Civil_War"}},{"type":"Feature","geometry":{"type":"Point","coordinates":[-71.983333,-13.522222]},"properties":{"qid":"Q636771","name":"Spanish conquest of the Inca Empire","start":1532,"end":1572,"wikipedia":"https://en.wikipedia.org/wiki/Spanish_conquest_of_the_Inca_Empire"}},{"type":"Feature","geometry":{"type":"Point","coordinates":[-77.0375,-12.06]},"properties":{"qid":"Q211435","name":"Viceroyalty of Peru","start":1537,"end":1548,"wikipedia":"https://en.wikipedia.org/wiki/Viceroyalty_of_Peru"}},{"type":"Feature","geometry":{"type":"Point","coordinates":[12.525,55.672222222222224]},"properties":{"qid":"Q62651","name":"Denmark–Norway","start":1540,"end":1540,"wikipedia":"https://en.wikipedia.org/wiki/Denmark%E2%80%93Norway"}},{"type":"Feature","geometry":{"type":"Point","coordinates":[49.114444444444,55.790833333333]},"properties":{"qid":"Q2670327","name":"Siege of Kazan","start":1552,"end":1552,"wikipedia":"https://en.wikipedia.org/wiki/Siege_of_Kazan"}},{"type":"Feature","geometry":{"type":"Point","coordinates":[-43.159722222222,-22.913888888889]},"properties":{"qid":"Q1353951","name":"Antarctic France","start":1555,"end":1567,"wikipedia":"https://en.wikipedia.org/wiki/France_Antarctique"}},{"type":"Feature","geometry":{"type":"Point","coordinates":[135.7616,35.0259]},"properties":{"qid":"Q124304720","name":"Revolt of Ashikaga Yoshiaki","start":1572,"end":1573,"wikipedia":"https://en.wikipedia.org/wiki/Revolt_of_Ashikaga_Yoshiaki"}},{"type":"Feature","geometry":{"type":"Point","coordinates":[-9,39]},"properties":{"qid":"Q3298746","name":"War of the Portuguese Succession","start":1580,"end":1583,"wikipedia":"https://en.wikipedia.org/wiki/War_of_the_Portuguese_Succession"}},{"type":"Feature","geometry":{"type":"Point","coordinates":[105,60]},"properties":{"qid":"Q1361199","name":"Conquest of the Khanate of Sibir","start":1581,"end":1585,"wikipedia":"https://en.wikipedia.org/wiki/Conquest_of_the_Khanate_of_Sibir"}},{"type":"Feature","geometry":{"type":"Point","coordinates":[135.75388889,35.00583333]},"properties":{"qid":"Q169598","name":"Honnō-ji Incident","start":1582,"end":1582,"wikipedia":"https://en.wikipedia.org/wiki/Honn%C5%8D-ji_Incident"}},{"type":"Feature","geometry":{"type":"Point","coordinates":[7.1,50.73388888888889]},"properties":{"qid":"Q524189","name":"Cologne War","start":1583,"end":1588,"wikipedia":"https://en.wikipedia.org/wiki/Cologne_War"}},{"type":"Feature","geometry":{"type":"Point","coordinates":[136.4616,35.3705]},"properties":{"qid":"Q234188","name":"Battle of Sekigahara","start":1600,"end":1600,"wikipedia":"https://en.wikipedia.org/wiki/Battle_of_Sekigahara"}},{"type":"Feature","geometry":{"type":"Point","coordinates":[6.33333333,45.58333333]},"properties":{"qid":"Q3119092","name":"Franco-Savoyard War (1600–1601)","start":1600,"end":1601,"wikipedia":"https://en.wikipedia.org/wiki/Franco-Savoyard_War_%281600%E2%80%931601%29"}},{"type":"Feature","geometry":{"type":"Point","coordinates":[19.93,50.05]},"properties":{"qid":"Q1044829","name":"Polish–Muscovite War","start":1605,"end":1618,"wikipedia":"https://en.wikipedia.org/wiki/Polish%E2%80%93Russian_War_%281609%E2%80%931618%29"}},{"type":"Feature","geometry":{"type":"Point","coordinates":[29.3,59.6333]},"properties":{"qid":"Q1962709","name":"Ingrian War","start":1610,"end":1617,"wikipedia":"https://en.wikipedia.org/wiki/Ingrian_War"}},{"type":"Feature","geometry":{"type":"Point","coordinates":[-44.30678838344521,-2.5270148192700423]},"properties":{"qid":"Q1440788","name":"Equinoctial France","start":1612,"end":1615,"wikipedia":"https://en.wikipedia.org/wiki/Equinoctial_France"}},{"type":"Feature","geometry":{"type":"Point","coordinates":[135.52,34.64]},"properties":{"qid":"Q475780","name":"Siege of Osaka","start":1614,"end":1615,"wikipedia":"https://en.wikipedia.org/wiki/Siege_of_Osaka"}},{"type":"Feature","geometry":{"type":"Point","coordinates":[8.93277778,44.41111111]},"properties":{"qid":"Q7311095","name":"Relief of Genoa","start":1625,"end":1625,"wikipedia":"https://en.wikipedia.org/wiki/Relief_of_Genoa"}},{"type":"Feature","geometry":{"type":"Point","coordinates":[16.21876,43.81276]},"properties":{"qid":"Q699602","name":"Cretan War of 1645-1669","start":1645,"end":1669,"wikipedia":"https://en.wikipedia.org/wiki/Cretan_War_%281645%E2%80%931669%29"}},{"type":"Feature","geometry":{"type":"Point","coordinates":[120.16083333333333,23.001666666666665]},"properties":{"qid":"Q697621","name":"Siege of Fort Zeelandia","start":1661,"end":1662,"wikipedia":"https://en.wikipedia.org/wiki/Siege_of_Fort_Zeelandia"}},{"type":"Feature","geometry":{"type":"Point","coordinates":[35.711,65.024]},"properties":{"qid":"Q2498038","name":"Solovetsky Monastery Uprising","start":1668,"end":1676,"wikipedia":"https://en.wikipedia.org/wiki/Solovetsky_Monastery_uprising"}},{"type":"Feature","geometry":{"type":"Point","coordinates":[-2.926,51.116]},"properties":{"qid":"Q1940446","name":"Monmouth Rebellion","start":1685,"end":1685,"wikipedia":"https://en.wikipedia.org/wiki/Monmouth_Rebellion"}},{"type":"Feature","geometry":{"type":"Point","coordinates":[1.5378,41.8375]},"properties":{"qid":"Q3139108","name":"Revolt of the Barretinas","start":1687,"end":1689,"wikipedia":"https://en.wikipedia.org/wiki/Revolt_of_the_Barretinas"}},{"type":"Feature","geometry":{"type":"Point","coordinates":[-77.63333333333334,8.834166666666667]},"properties":{"qid":"Q1166080","name":"Darien scheme","start":1699,"end":1700,"wikipedia":"https://en.wikipedia.org/wiki/Darien_scheme"}},{"type":"Feature","geometry":{"type":"Point","coordinates":[44.12111111,42.26111111]},"properties":{"qid":"Q2913821","name":"Ottoman–Persian War of 1730–1735","start":1730,"end":1735,"wikipedia":"https://en.wikipedia.org/wiki/Ottoman%E2%80%93Persian_War_%281730%E2%80%931735%29"}},{"type":"Feature","geometry":{"type":"Point","coordinates":[-64.7333,18.3333]},"properties":{"qid":"Q4552666","name":"1733 slave insurrection on St. John","start":1733,"end":1734,"wikipedia":"https://en.wikipedia.org/wiki/1733_slave_insurrection_on_St._John"}},{"type":"Feature","geometry":{"type":"Point","coordinates":[-100,50]},"properties":{"qid":"Q517578","name":"King George's War","start":1744,"end":1748,"wikipedia":"https://en.wikipedia.org/wiki/King_George%27s_War"}},{"type":"Feature","geometry":{"type":"Point","coordinates":[70.1167,58.65]},"properties":{"qid":"Q34266","name":"Russian Empire","start":1744,"end":1747,"wikipedia":"https://en.wikipedia.org/wiki/Russian_Empire"}},{"type":"Feature","geometry":{"type":"Point","coordinates":[79.84944444444444,11.029166666666667]},"properties":{"qid":"Q124683233","name":"Cattle War","start":1756,"end":1756,"wikipedia":"https://en.wikipedia.org/wiki/Cattle_War"}},{"type":"Feature","geometry":{"type":"Point","coordinates":[-62.2,16.7]},"properties":{"qid":"Q111940467","name":"Montserrat slave rebellion of 1768","start":1768,"end":1768,"wikipedia":"https://en.wikipedia.org/wiki/Montserrat_slave_rebellion_of_1768"}},{"type":"Feature","geometry":{"type":"Point","coordinates":[-80.8048,39.918]},"properties":{"qid":"Q2632175","name":"Dunmore's War","start":1774,"end":1774,"wikipedia":"https://en.wikipedia.org/wiki/Lord_Dunmore%27s_War"}},{"type":"Feature","geometry":{"type":"Point","coordinates":[14.518611111111111,35.901944444444446]},"properties":{"qid":"Q20204978","name":"Rising of the Priests","start":1775,"end":1775,"wikipedia":"https://en.wikipedia.org/wiki/Rising_of_the_Priests"}},{"type":"Feature","geometry":{"type":"Point","coordinates":[106.325,10.33888889]},"properties":{"qid":"Q1047091","name":"Battle of Rạch Gầm-Xoài Mút","start":1785,"end":1785,"wikipedia":"https://en.wikipedia.org/wiki/Battle_of_R%E1%BA%A1ch_G%E1%BA%A7m-Xo%C3%A0i_M%C3%BAt"}},{"type":"Feature","geometry":{"type":"Point","coordinates":[-86,41]},"properties":{"qid":"Q2656995","name":"Northwest Indian War","start":1785,"end":1795,"wikipedia":"https://en.wikipedia.org/wiki/Northwest_Indian_War"}},{"type":"Feature","geometry":{"type":"Point","coordinates":[107.6,16.466666666666665]},"properties":{"qid":"Q2301908","name":"Nguyễn lords","start":1787,"end":1802,"wikipedia":"https://en.wikipedia.org/wiki/Nguy%E1%BB%85n_lords"}},{"type":"Feature","geometry":{"type":"Point","coordinates":[5.5756805555556,50.645280555556]},"properties":{"qid":"Q1527921","name":"Liège Revolution","start":1789,"end":1791,"wikipedia":"https://en.wikipedia.org/wiki/Li%C3%A8ge_Revolution"}},{"type":"Feature","geometry":{"type":"Point","coordinates":[44.90277777777778,41.609722222222224]},"properties":{"qid":"Q2615347","name":"Battle of Krtsanisi","start":1795,"end":1795,"wikipedia":"https://en.wikipedia.org/wiki/Battle_of_Krtsanisi"}},{"type":"Feature","geometry":{"type":"Point","coordinates":[-61.2,13.25]},"properties":{"qid":"Q7443152","name":"Second Carib War","start":1795,"end":1797,"wikipedia":"https://en.wikipedia.org/wiki/Second_Carib_War"}},{"type":"Feature","geometry":{"type":"Point","coordinates":[-0.1275,51.507222]},"properties":{"qid":"Q8680","name":"British Empire","start":1800,"end":1865,"wikipedia":"https://en.wikipedia.org/wiki/British_Empire"}},{"type":"Feature","geometry":{"type":"Point","coordinates":[13.164,32.958]},"properties":{"qid":"Q468293","name":"First Barbary War","start":1801,"end":1805,"wikipedia":"https://en.wikipedia.org/wiki/First_Barbary_War"}},{"type":"Feature","geometry":{"type":"Point","coordinates":[-135.31305555555556,57.04611111111111]},"properties":{"qid":"Q1648550","name":"Battle of Sitka","start":1804,"end":1804,"wikipedia":"https://en.wikipedia.org/wiki/Battle_of_Sitka"}},{"type":"Feature","geometry":{"type":"Point","coordinates":[151.00402,-33.72925]},"properties":{"qid":"Q4353495","name":"Castle Hill convict rebellion","start":1804,"end":1804,"wikipedia":"https://en.wikipedia.org/wiki/Castle_Hill_convict_rebellion"}},{"type":"Feature","geometry":{"type":"Point","coordinates":[14.5284,35.897]},"properties":{"qid":"Q20050680","name":"Froberg mutiny","start":1807,"end":1807,"wikipedia":"https://en.wikipedia.org/wiki/Froberg_mutiny"}},{"type":"Feature","geometry":{"type":"Point","coordinates":[22.966666666666665,62]},"properties":{"qid":"Q736268","name":"Finnish War","start":1808,"end":1809,"wikipedia":"https://en.wikipedia.org/wiki/Finnish_War"}},{"type":"Feature","geometry":{"type":"Point","coordinates":[-79.5,22]},"properties":{"qid":"Q5784367","name":"Aponte Conspiracy","start":1812,"end":1812,"wikipedia":"https://en.wikipedia.org/wiki/Aponte_conspiracy"}},{"type":"Feature","geometry":{"type":"Point","coordinates":[40.911,-2.297]},"properties":{"qid":"Q17110449","name":"Battle of Shela","start":1812,"end":1812,"wikipedia":"https://en.wikipedia.org/wiki/Battle_of_Shela"}},{"type":"Feature","geometry":{"type":"Point","coordinates":[3.06,36.77611]},"properties":{"qid":"Q891806","name":"Bombardment of Algiers","start":1816,"end":1816,"wikipedia":"https://en.wikipedia.org/wiki/Bombardment_of_Algiers_%281816%29"}},{"type":"Feature","geometry":{"type":"Point","coordinates":[5.195,7.25]},"properties":{"qid":"Q123171269","name":"Akure–Benin War","start":1818,"end":1818,"wikipedia":"https://en.wikipedia.org/wiki/Akure%E2%80%93Benin_War"}},{"type":"Feature","geometry":{"type":"Point","coordinates":[29,41]},"properties":{"qid":"Q12560","name":"Ottoman Empire","start":1820,"end":1821,"wikipedia":"https://en.wikipedia.org/wiki/Ottoman_Empire"}},{"type":"Feature","geometry":{"type":"Point","coordinates":[-53,-14]},"properties":{"qid":"Q3082702","name":"Brazilian War of Independence","start":1822,"end":1824,"wikipedia":"https://en.wikipedia.org/wiki/Brazilian_War_of_Independence"}},{"type":"Feature","geometry":{"type":"Point","coordinates":[-37.81,-8.34]},"properties":{"qid":"Q977981","name":"Confederation of the Equator","start":1824,"end":1824,"wikipedia":"https://en.wikipedia.org/wiki/Confederation_of_the_Equator"}},{"type":"Feature","geometry":{"type":"Point","coordinates":[30.303,59.9335]},"properties":{"qid":"Q126306","name":"Decembrist revolt","start":1825,"end":1825,"wikipedia":"https://en.wikipedia.org/wiki/Decembrist_revolt"}},{"type":"Feature","geometry":{"type":"Point","coordinates":[13.1858,32.9022]},"properties":{"qid":"Q4940517","name":"Bombardment of Tripoli","start":1828,"end":1828,"wikipedia":"https://en.wikipedia.org/wiki/Bombardment_of_Tripoli_%281828%29"}},{"type":"Feature","geometry":{"type":"Point","coordinates":[85.33,23.360000000000003]},"properties":{"qid":"Q65287982","name":"Kol Uprising","start":1831,"end":1833,"wikipedia":"https://en.wikipedia.org/wiki/Kol_uprising"}},{"type":"Feature","geometry":{"type":"Point","coordinates":[-100,31]},"properties":{"qid":"Q638530","name":"Texas Revolution","start":1835,"end":1836,"wikipedia":"https://en.wikipedia.org/wiki/Texas_Revolution"}},{"type":"Feature","geometry":{"type":"Point","coordinates":[30.541666666667,-28.105277777778]},"properties":{"qid":"Q1392699","name":"Battle of Blood River","start":1838,"end":1838,"wikipedia":"https://en.wikipedia.org/wiki/Battle_of_Blood_River"}},{"type":"Feature","geometry":{"type":"Point","coordinates":[-67,8]},"properties":{"qid":"Q717","name":"Venezuela","start":1846,"end":1847,"wikipedia":"https://en.wikipedia.org/wiki/Venezuela"}},{"type":"Feature","geometry":{"type":"Point","coordinates":[-87.984,19.5857]},"properties":{"qid":"Q772814","name":"Caste War of Yucatán","start":1847,"end":1901,"wikipedia":"https://en.wikipedia.org/wiki/Caste_War_of_Yucat%C3%A1n"}},{"type":"Feature","geometry":{"type":"Point","coordinates":[-6.83,34.04]},"properties":{"qid":"Q2909602","name":"Bombardment of Salé","start":1851,"end":1851,"wikipedia":"https://en.wikipedia.org/wiki/Bombardment_of_Sal%C3%A9_%281851%29"}},{"type":"Feature","geometry":{"type":"Point","coordinates":[23.0471,69.0031]},"properties":{"qid":"Q3274081","name":"Kautokeino rebellion","start":1852,"end":1852,"wikipedia":"https://en.wikipedia.org/wiki/Kautokeino_rebellion"}},{"type":"Feature","geometry":{"type":"Point","coordinates":[-66.9,10.5]},"properties":{"qid":"Q39501433","name":"State of Venezuela","start":1853,"end":1854,"wikipedia":"https://en.wikipedia.org/wiki/State_of_Venezuela"}},{"type":"Feature","geometry":{"type":"Point","coordinates":[-98,38.5]},"properties":{"qid":"Q331377","name":"Bleeding Kansas","start":1854,"end":1861,"wikipedia":"https://en.wikipedia.org/wiki/Bleeding_Kansas"}},{"type":"Feature","geometry":{"type":"Point","coordinates":[-102.12277777778,41.298611111111]},"properties":{"qid":"Q2237324","name":"Battle of Ash Hollow","start":1855,"end":1855,"wikipedia":"https://en.wikipedia.org/wiki/Battle_of_Ash_Hollow"}},{"type":"Feature","geometry":{"type":"Point","coordinates":[87.6,24.766666666666666]},"properties":{"qid":"Q185263","name":"Santhal rebellion","start":1855,"end":1855,"wikipedia":"https://en.wikipedia.org/wiki/Santhal_rebellion"}},{"type":"Feature","geometry":{"type":"Point","coordinates":[-2.97444444,35.43833333]},"properties":{"qid":"Q1497956","name":"Battle of Tres Forcas","start":1856,"end":1856,"wikipedia":"https://en.wikipedia.org/wiki/Battle_of_Tres_Forcas"}},{"type":"Feature","geometry":{"type":"Point","coordinates":[-123.00661389,48.46164167]},"properties":{"qid":"Q1064335","name":"Pig War","start":1859,"end":1859,"wikipedia":"https://en.wikipedia.org/wiki/Pig_War_%281859%29"}},{"type":"Feature","geometry":{"type":"Point","coordinates":[130.548134,31.595498]},"properties":{"qid":"Q1352401","name":"Bombardment of Kagoshima","start":1863,"end":1863,"wikipedia":"https://en.wikipedia.org/wiki/Bombardment_of_Kagoshima"}},{"type":"Feature","geometry":{"type":"Point","coordinates":[-76.4074,17.8819]},"properties":{"qid":"Q226032","name":"Morant Bay rebellion","start":1865,"end":1865,"wikipedia":"https://en.wikipedia.org/wiki/Morant_Bay_rebellion"}},{"type":"Feature","geometry":{"type":"Point","coordinates":[-66.8786,18.295]},"properties":{"qid":"Q1547128","name":"Grito de Lares","start":1868,"end":1868,"wikipedia":"https://en.wikipedia.org/wiki/Grito_de_Lares"}},{"type":"Feature","geometry":{"type":"Point","coordinates":[-80,21.5]},"properties":{"qid":"Q184637","name":"Ten Years' War","start":1868,"end":1878,"wikipedia":"https://en.wikipedia.org/wiki/Ten_Years%27_War"}},{"type":"Feature","geometry":{"type":"Point","coordinates":[2.3513888888889,48.856944444444]},"properties":{"qid":"Q133132","name":"Paris Commune","start":1871,"end":1871,"wikipedia":"https://en.wikipedia.org/wiki/Paris_Commune"}},{"type":"Feature","geometry":{"type":"Point","coordinates":[126.43333333333,37.7]},"properties":{"qid":"Q485415","name":"United States expedition to Korea","start":1871,"end":1871,"wikipedia":"https://en.wikipedia.org/wiki/United_States_expedition_to_Korea"}},{"type":"Feature","geometry":{"type":"Point","coordinates":[97.41,4.59]},"properties":{"qid":"Q277450","name":"Aceh War","start":1873,"end":1904,"wikipedia":"https://en.wikipedia.org/wiki/Aceh_War"}},{"type":"Feature","geometry":{"type":"Point","coordinates":[126.4984,37.7305]},"properties":{"qid":"Q496905","name":"Ganghwa Island incident","start":1875,"end":1875,"wikipedia":"https://en.wikipedia.org/wiki/Ganghwa_Island_incident"}},{"type":"Feature","geometry":{"type":"Point","coordinates":[39.916666666666664,-16.233333333333334]},"properties":{"qid":"Q1949848","name":"Angoche Sultanate","start":1877,"end":1890,"wikipedia":"https://en.wikipedia.org/wiki/Angoche_Sultanate"}},{"type":"Feature","geometry":{"type":"Point","coordinates":[-105.077,31.7433]},"properties":{"qid":"Q7413801","name":"San Elizario Salt War","start":1877,"end":1878,"wikipedia":"https://en.wikipedia.org/wiki/San_Elizario_Salt_War"}},{"type":"Feature","geometry":{"type":"Point","coordinates":[32,15]},"properties":{"qid":"Q31944","name":"Mahdist War","start":1881,"end":1899,"wikipedia":"https://en.wikipedia.org/wiki/Mahdist_War"}},{"type":"Feature","geometry":{"type":"Point","coordinates":[-111.294575,33.8317111]},"properties":{"qid":"Q7204086","name":"Pleasant Valley War","start":1882,"end":1892,"wikipedia":"https://en.wikipedia.org/wiki/Pleasant_Valley_War"}},{"type":"Feature","geometry":{"type":"Point","coordinates":[-106.59,44.04]},"properties":{"qid":"Q6268269","name":"Johnson County War","start":1888,"end":1893,"wikipedia":"https://en.wikipedia.org/wiki/Johnson_County_War"}},{"type":"Feature","geometry":{"type":"Point","coordinates":[39.5,29.716666666666665]},"properties":{"qid":"Q654722","name":"Battle of Mulayda","start":1891,"end":1891,"wikipedia":"https://en.wikipedia.org/wiki/Battle_of_Mulayda"}},{"type":"Feature","geometry":{"type":"Point","coordinates":[-4,35]},"properties":{"qid":"Q1806916","name":"First Melillan campaign","start":1893,"end":1894,"wikipedia":"https://en.wikipedia.org/wiki/First_Melillan_campaign"}},{"type":"Feature","geometry":{"type":"Point","coordinates":[-39.163888888889,-9.9638888888889]},"properties":{"qid":"Q2350166","name":"War of Canudos","start":1893,"end":1897,"wikipedia":"https://en.wikipedia.org/wiki/War_of_Canudos"}},{"type":"Feature","geometry":{"type":"Point","coordinates":[39.33654722222222,-6.140555555555555]},"properties":{"qid":"Q170850","name":"Anglo-Zanzibar War","start":1896,"end":1896,"wikipedia":"https://en.wikipedia.org/wiki/Anglo-Zanzibar_War"}},{"type":"Feature","geometry":{"type":"Point","coordinates":[43.34166666666667,38.49944444444444]},"properties":{"qid":"Q5251450","name":"Defense of Van","start":1896,"end":1896,"wikipedia":"https://en.wikipedia.org/wiki/Defense_of_Van_%281896%29"}},{"type":"Feature","geometry":{"type":"Point","coordinates":[-66.8503,18.0369]},"properties":{"qid":"Q6044491","name":"Intentona de Yauco","start":1897,"end":1897,"wikipedia":"https://en.wikipedia.org/wiki/Intentona_de_Yauco"}},{"type":"Feature","geometry":{"type":"Point","coordinates":[72.33333333333333,40.78333333333333]},"properties":{"qid":"Q4754457","name":"Andijan uprising of 1898","start":1898,"end":1898,"wikipedia":"https://en.wikipedia.org/wiki/Andijan_uprising_of_1898"}},{"type":"Feature","geometry":{"type":"Point","coordinates":[-73.80111111,-7.11416667]},"properties":{"qid":"Q2606574","name":"Acre War","start":1899,"end":1903,"wikipedia":"https://en.wikipedia.org/wiki/Acre_War"}},{"type":"Feature","geometry":{"type":"Point","coordinates":[32.533055555556,15.633055555556]},"properties":{"qid":"Q541455","name":"Anglo-Egyptian Sudan","start":1900,"end":1905,"wikipedia":"https://en.wikipedia.org/wiki/Anglo-Egyptian_Sudan"}},{"type":"Feature","geometry":{"type":"Point","coordinates":[15.0333,12.0667]},"properties":{"qid":"Q1164601","name":"Battle of Kousséri","start":1900,"end":1901,"wikipedia":"https://en.wikipedia.org/wiki/Battle_of_Kouss%C3%A9ri"}},{"type":"Feature","geometry":{"type":"Point","coordinates":[2,47]},"properties":{"qid":"Q142","name":"France","start":1900,"end":1903,"wikipedia":"https://en.wikipedia.org/wiki/France","deaths":593865}},{"type":"Feature","geometry":{"type":"Point","coordinates":[41.519517,38.695786]},"properties":{"qid":"Q4871242","name":"Battle of Holy Apostles Monastery","start":1901,"end":1901,"wikipedia":"https://en.wikipedia.org/wiki/Battle_of_Holy_Apostles_Monastery"}},{"type":"Feature","geometry":{"type":"Point","coordinates":[17,-22]},"properties":{"qid":"Q153665","name":"German South-West Africa","start":1901,"end":1901,"wikipedia":"https://en.wikipedia.org/wiki/German_South_West_Africa"}},{"type":"Feature","geometry":{"type":"Point","coordinates":[-72.8,19]},"properties":{"qid":"Q790","name":"Haiti","start":1902,"end":1902,"wikipedia":"https://en.wikipedia.org/wiki/Haiti"}},{"type":"Feature","geometry":{"type":"Point","coordinates":[114,-1]},"properties":{"qid":"Q3795","name":"Kalimantan","start":1902,"end":1903,"wikipedia":"https://en.wikipedia.org/wiki/Kalimantan"}},{"type":"Feature","geometry":{"type":"Point","coordinates":[-9.13333333,38.71666667]},"properties":{"qid":"Q200464","name":"Portuguese Empire","start":1902,"end":1904,"wikipedia":"https://en.wikipedia.org/wiki/Portuguese_Empire"}},{"type":"Feature","geometry":{"type":"Point","coordinates":[101.270830555556,-0.298888888888889]},"properties":{"qid":"Q3492","name":"Sumatra","start":1902,"end":1906,"wikipedia":"https://en.wikipedia.org/wiki/Sumatra"}},{"type":"Feature","geometry":{"type":"Point","coordinates":[89.27694444,26.08888889]},"properties":{"qid":"Q592550","name":"British expedition to Tibet","start":1903,"end":1904,"wikipedia":"https://en.wikipedia.org/wiki/British_expedition_to_Tibet"}},{"type":"Feature","geometry":{"type":"Point","coordinates":[64.428611111111,39.774722222222]},"properties":{"qid":"Q746558","name":"Emirate of Bukhara","start":1903,"end":1903,"wikipedia":"https://en.wikipedia.org/wiki/Emirate_of_Bukhara"}},{"type":"Feature","geometry":{"type":"Point","coordinates":[20.463055555555556,44.81027777777778]},"properties":{"qid":"Q2403418","name":"May Coup","start":1903,"end":1903,"wikipedia":"https://en.wikipedia.org/wiki/May_Coup_%28Serbia%29"}},{"type":"Feature","geometry":{"type":"Point","coordinates":[88.337777777778,22.541111111111]},"properties":{"qid":"Q129286","name":"British Raj","start":1904,"end":1904,"wikipedia":"https://en.wikipedia.org/wiki/British_Raj"}},{"type":"Feature","geometry":{"type":"Point","coordinates":[41.3953,38.3803]},"properties":{"qid":"Q4408946","name":"Sasun Uprising","start":1904,"end":1904,"wikipedia":"https://en.wikipedia.org/wiki/1904_Sasun_uprising"}},{"type":"Feature","geometry":{"type":"Point","coordinates":[14.9833,-16.8]},"properties":{"qid":"Q2984842","name":"Battle of Mufilo","start":1907,"end":1907,"wikipedia":"https://en.wikipedia.org/wiki/Battle_of_Mufilo"}},{"type":"Feature","geometry":{"type":"Point","coordinates":[39.765277777778,37.230555555556]},"properties":{"qid":"Q497731","name":"Viranşehir","start":1907,"end":1907,"wikipedia":"https://en.wikipedia.org/wiki/Viran%C5%9Fehir"}},{"type":"Feature","geometry":{"type":"Point","coordinates":[105.85,21.033333333333]},"properties":{"qid":"Q185682","name":"French Indochina","start":1908,"end":1908,"wikipedia":"https://en.wikipedia.org/wiki/French_Indochina"}},{"type":"Feature","geometry":{"type":"Point","coordinates":[13.376111111111111,52.51861111111111]},"properties":{"qid":"Q43287","name":"German Empire","start":1908,"end":1909,"wikipedia":"https://en.wikipedia.org/wiki/German_Empire"}},{"type":"Feature","geometry":{"type":"Point","coordinates":[34,-13.5]},"properties":{"qid":"Q1649306","name":"Nyasaland","start":1909,"end":1909,"wikipedia":"https://en.wikipedia.org/wiki/Nyasaland"}},{"type":"Feature","geometry":{"type":"Point","coordinates":[17.35,-12.35]},"properties":{"qid":"Q2826232","name":"Portuguese Angola","start":1910,"end":1912,"wikipedia":"https://en.wikipedia.org/wiki/Portuguese_Angola"}},{"type":"Feature","geometry":{"type":"Point","coordinates":[32.57638888889,-25.91527777778]},"properties":{"qid":"Q889394","name":"Portuguese Mozambique","start":1910,"end":1910,"wikipedia":"https://en.wikipedia.org/wiki/Portuguese_Mozambique"}},{"type":"Feature","geometry":{"type":"Point","coordinates":[12.5,41.9]},"properties":{"qid":"Q172579","name":"Kingdom of Italy","start":1912,"end":1912,"wikipedia":"https://en.wikipedia.org/wiki/Kingdom_of_Italy"}},{"type":"Feature","geometry":{"type":"Point","coordinates":[110,40]},"properties":{"qid":"Q13426199","name":"Republic of China","start":1913,"end":1915,"wikipedia":"https://en.wikipedia.org/wiki/Republic_of_China_%281912%E2%80%931949%29"}},{"type":"Feature","geometry":{"type":"Point","coordinates":[-53,-14]},"properties":{"qid":"Q2414171","name":"First Brazilian Republic","start":1914,"end":1914,"wikipedia":"https://en.wikipedia.org/wiki/First_Brazilian_Republic"}},{"type":"Feature","geometry":{"type":"Point","coordinates":[-4.5,33.5]},"properties":{"qid":"Q8064768","name":"Zaian War","start":1914,"end":1921,"wikipedia":"https://en.wikipedia.org/wiki/Zaian_War"}},{"type":"Feature","geometry":{"type":"Point","coordinates":[4.6,10.3167]},"properties":{"qid":"Q16825060","name":"Bussa rebellion","start":1915,"end":1915,"wikipedia":"https://en.wikipedia.org/wiki/Bussa_rebellion"}},{"type":"Feature","geometry":{"type":"Point","coordinates":[35.19083333333333,-15.755555555555556]},"properties":{"qid":"Q16056284","name":"Chilembwe Uprising","start":1915,"end":1915,"wikipedia":"https://en.wikipedia.org/wiki/Chilembwe_uprising"}},{"type":"Feature","geometry":{"type":"Point","coordinates":[26.2775,40.2375]},"properties":{"qid":"Q164983","name":"Gallipoli Campaign","start":1915,"end":1916,"wikipedia":"https://en.wikipedia.org/wiki/Gallipoli_campaign"}},{"type":"Feature","geometry":{"type":"Point","coordinates":[-3.46,12.46305556]},"properties":{"qid":"Q7940702","name":"Volta-Bani War","start":1915,"end":1917,"wikipedia":"https://en.wikipedia.org/wiki/Volta-Bani_War"}},{"type":"Feature","geometry":{"type":"Point","coordinates":[29.325,58.883333333333]},"properties":{"qid":"Q597026","name":"Kerensky–Krasnov uprising","start":1917,"end":1917,"wikipedia":"https://en.wikipedia.org/wiki/Kerensky%E2%80%93Krasnov_uprising"}},{"type":"Feature","geometry":{"type":"Point","coordinates":[165.3,-21.25]},"properties":{"qid":"Q33788","name":"New Caledonia","start":1917,"end":1918,"wikipedia":"https://en.wikipedia.org/wiki/New_Caledonia"}},{"type":"Feature","geometry":{"type":"Point","coordinates":[24,-29]},"properties":{"qid":"Q258","name":"South Africa","start":1917,"end":1917,"wikipedia":"https://en.wikipedia.org/wiki/South_Africa"}},{"type":"Feature","geometry":{"type":"Point","coordinates":[26.031111111111,57.776944444444]},"properties":{"qid":"Q1127302","name":"Estonian War of Independence","start":1918,"end":1920,"wikipedia":"https://en.wikipedia.org/wiki/Estonian_War_of_Independence"}},{"type":"Feature","geometry":{"type":"Point","coordinates":[24.94,57]},"properties":{"qid":"Q543042","name":"Latvian War of Independence","start":1918,"end":1920,"wikipedia":"https://en.wikipedia.org/wiki/Latvian_War_of_Independence"}},{"type":"Feature","geometry":{"type":"Point","coordinates":[31.75,60.05]},"properties":{"qid":"Q11864899","name":"Revolt of the Ingrian Finns","start":1918,"end":1920,"wikipedia":"https://en.wikipedia.org/wiki/Revolt_of_the_Ingrian_Finns"}},{"type":"Feature","geometry":{"type":"Point","coordinates":[11.7933,31.8649]},"properties":{"qid":"Q4560844","name":"1920 Jabal al-Gharbi Civil War","start":1920,"end":1922,"wikipedia":"https://en.wikipedia.org/wiki/1920%E2%80%931922_Jabal_al-Gharbi_civil_war"}},{"type":"Feature","geometry":{"type":"Point","coordinates":[66,33]},"properties":{"qid":"Q889","name":"Afghanistan","start":1920,"end":1920,"wikipedia":"https://en.wikipedia.org/wiki/Afghanistan"}},{"type":"Feature","geometry":{"type":"Point","coordinates":[104.626278,35.580611]},"properties":{"qid":"Q186006","name":"Dingxi","start":1920,"end":1920,"wikipedia":"https://en.wikipedia.org/wiki/Dingxi"}},{"type":"Feature","geometry":{"type":"Point","coordinates":[53,32]},"properties":{"qid":"Q794","name":"Iran","start":1921,"end":1921,"wikipedia":"https://en.wikipedia.org/wiki/Iran"}},{"type":"Feature","geometry":{"type":"Point","coordinates":[29.733611111111,60.0125]},"properties":{"qid":"Q208300","name":"Kronstadt rebellion","start":1921,"end":1921,"wikipedia":"https://en.wikipedia.org/wiki/Kronstadt_rebellion"}},{"type":"Feature","geometry":{"type":"Point","coordinates":[76.06666667,11.06666667]},"properties":{"qid":"Q944568","name":"Malabar Rebellion","start":1921,"end":1921,"wikipedia":"https://en.wikipedia.org/wiki/Malabar_rebellion"}},{"type":"Feature","geometry":{"type":"Point","coordinates":[36,39]},"properties":{"qid":"Q43","name":"Turkey","start":1921,"end":1921,"wikipedia":"https://en.wikipedia.org/wiki/Turkey"}},{"type":"Feature","geometry":{"type":"Point","coordinates":[81.7841,17.4584]},"properties":{"qid":"Q48724608","name":"Rampa Rebellion of 1922","start":1922,"end":1924,"wikipedia":"https://en.wikipedia.org/wiki/Rampa_Rebellion_of_1922"}},{"type":"Feature","geometry":{"type":"Point","coordinates":[24,-29]},"properties":{"qid":"Q193619","name":"Union of South Africa","start":1922,"end":1922,"wikipedia":"https://en.wikipedia.org/wiki/Union_of_South_Africa"}},{"type":"Feature","geometry":{"type":"Point","coordinates":[11.592,48.1304]},"properties":{"qid":"Q36749","name":"Beer Hall Putsch","start":1923,"end":1923,"wikipedia":"https://en.wikipedia.org/wiki/Beer_Hall_Putsch"}},{"type":"Feature","geometry":{"type":"Point","coordinates":[19.75,39.66666667]},"properties":{"qid":"Q2008840","name":"Corfu incident","start":1923,"end":1923,"wikipedia":"https://en.wikipedia.org/wiki/Corfu_incident"}},{"type":"Feature","geometry":{"type":"Point","coordinates":[21.135,55.7125]},"properties":{"qid":"Q3358934","name":"Klaipėda Revolt","start":1923,"end":1923,"wikipedia":"https://en.wikipedia.org/wiki/Klaip%C4%97da_Revolt"}},{"type":"Feature","geometry":{"type":"Point","coordinates":[-102,23]},"properties":{"qid":"Q96","name":"Mexico","start":1923,"end":1923,"wikipedia":"https://en.wikipedia.org/wiki/Mexico"}},{"type":"Feature","geometry":{"type":"Point","coordinates":[90,65]},"properties":{"qid":"Q15180","name":"Soviet Union","start":1924,"end":1925,"wikipedia":"https://en.wikipedia.org/wiki/Soviet_Union"}},{"type":"Feature","geometry":{"type":"Point","coordinates":[23.206857,41.398129]},"properties":{"qid":"Q3048886","name":"Incident at Petrich","start":1925,"end":1925,"wikipedia":"https://en.wikipedia.org/wiki/Incident_at_Petrich"}},{"type":"Feature","geometry":{"type":"Point","coordinates":[50.25,17.166666666667]},"properties":{"qid":"Q1296908","name":"Kathiri Sultanate","start":1926,"end":1927,"wikipedia":"https://en.wikipedia.org/wiki/Kathiri"}},{"type":"Feature","geometry":{"type":"Point","coordinates":[43.17,16.9]},"properties":{"qid":"Q68006695","name":"1931 Saudi–Yemeni border skirmish","start":1931,"end":1931,"wikipedia":"https://en.wikipedia.org/wiki/1931_Saudi%E2%80%93Yemeni_border_skirmish"}},{"type":"Feature","geometry":{"type":"Point","coordinates":[-9.183333333333334,38.7]},"properties":{"qid":"Q45","name":"Portugal","start":1931,"end":1931,"wikipedia":"https://en.wikipedia.org/wiki/Portugal"}},{"type":"Feature","geometry":{"type":"Point","coordinates":[44.116667,23.716667]},"properties":{"qid":"Q851","name":"Saudi Arabia","start":1931,"end":1933,"wikipedia":"https://en.wikipedia.org/wiki/Saudi_Arabia"}},{"type":"Feature","geometry":{"type":"Point","coordinates":[-89.166,13.666]},"properties":{"qid":"Q939859","name":"1932 Salvadoran peasant massacre","start":1932,"end":1932,"wikipedia":"https://en.wikipedia.org/wiki/La_Matanza"}},{"type":"Feature","geometry":{"type":"Point","coordinates":[-59.73666667,-21.32722222]},"properties":{"qid":"Q223126","name":"Chaco War","start":1932,"end":1935,"wikipedia":"https://en.wikipedia.org/wiki/Chaco_War"}},{"type":"Feature","geometry":{"type":"Point","coordinates":[118.48622222222,-31.027111111111]},"properties":{"qid":"Q14665","name":"Emu War","start":1932,"end":1932,"wikipedia":"https://en.wikipedia.org/wiki/Emu_War"}},{"type":"Feature","geometry":{"type":"Point","coordinates":[37.46666666666667,12.6]},"properties":{"qid":"Q207521","name":"Ethiopian Empire","start":1932,"end":1932,"wikipedia":"https://en.wikipedia.org/wiki/Ethiopian_Empire"}},{"type":"Feature","geometry":{"type":"Point","coordinates":[121.47,31.17]},"properties":{"qid":"Q515545","name":"January 28 Incident","start":1932,"end":1932,"wikipedia":"https://en.wikipedia.org/wiki/January_28_incident"}},{"type":"Feature","geometry":{"type":"Point","coordinates":[118.59,47.7303]},"properties":{"qid":"Q696389","name":"Soviet–Japanese border conflicts","start":1932,"end":1939,"wikipedia":"https://en.wikipedia.org/wiki/Soviet%E2%80%93Japanese_border_conflicts"}},{"type":"Feature","geometry":{"type":"Point","coordinates":[-5.8091666666667,36.342777777778]},"properties":{"qid":"Q3328100","name":"Casas Viejas incident","start":1933,"end":1933,"wikipedia":"https://en.wikipedia.org/wiki/Casas_Viejas_incident"}},{"type":"Feature","geometry":{"type":"Point","coordinates":[69.13,34.54]},"properties":{"qid":"Q1335260","name":"Emirate of Afghanistan","start":1933,"end":1933,"wikipedia":"https://en.wikipedia.org/wiki/Emirate_of_Afghanistan"}},{"type":"Feature","geometry":{"type":"Point","coordinates":[4.6680555555556,50.641111111111]},"properties":{"qid":"Q31","name":"Belgium","start":1934,"end":1934,"wikipedia":"https://en.wikipedia.org/wiki/Belgium"}},{"type":"Feature","geometry":{"type":"Point","coordinates":[139.69694444,35.66416667]},"properties":{"qid":"Q477958","name":"February 26 Incident","start":1936,"end":1936,"wikipedia":"https://en.wikipedia.org/wiki/February_26_incident"}},{"type":"Feature","geometry":{"type":"Point","coordinates":[65,33]},"properties":{"qid":"Q1138904","name":"Kingdom of Afghanistan","start":1937,"end":1939,"wikipedia":"https://en.wikipedia.org/wiki/Kingdom_of_Afghanistan"}},{"type":"Feature","geometry":{"type":"Point","coordinates":[74.6667,34.0333]},"properties":{"qid":"Q1413732","name":"Kashmir conflict","start":1947,"end":2003,"wikipedia":"https://en.wikipedia.org/wiki/Kashmir_conflict","deaths":47000}},{"type":"Feature","geometry":{"type":"Point","coordinates":[-76,-9.4]},"properties":{"qid":"Q419","name":"Peru","start":1950,"end":1950,"wikipedia":"https://en.wikipedia.org/wiki/Peru"}},{"type":"Feature","geometry":{"type":"Point","coordinates":[67.615,47.84111111]},"properties":{"qid":"Q1738747","name":"Kengir uprising","start":1954,"end":1954,"wikipedia":"https://en.wikipedia.org/wiki/Kengir_uprising"}},{"type":"Feature","geometry":{"type":"Point","coordinates":[45.255555555556,13.830833333333]},"properties":{"qid":"Q1367119","name":"Upper Yafa","start":1955,"end":1957,"wikipedia":"https://en.wikipedia.org/wiki/Upper_Yafa"}},{"type":"Feature","geometry":{"type":"Point","coordinates":[118,-2]},"properties":{"qid":"Q252","name":"Indonesia","start":1957,"end":1961,"wikipedia":"https://en.wikipedia.org/wiki/Indonesia"}},{"type":"Feature","geometry":{"type":"Point","coordinates":[-1.9355555555556,42.883055555556]},"properties":{"qid":"Q47588","name":"Basque Country","start":1959,"end":2011,"wikipedia":"https://en.wikipedia.org/wiki/Basque_Country_%28greater_region%29"}},{"type":"Feature","geometry":{"type":"Point","coordinates":[-68.097391,-1.106889]},"properties":{"qid":"Q12585","name":"Latin America","start":1961,"end":1990,"wikipedia":"https://en.wikipedia.org/wiki/Latin_America"}},{"type":"Feature","geometry":{"type":"Point","coordinates":[85.8167,22.5667]},"properties":{"qid":"Q979845","name":"Naxalite–Maoist insurgency","start":1967,"end":1967,"wikipedia":"https://en.wikipedia.org/wiki/Naxalite%E2%80%93Maoist_insurgency"}},{"type":"Feature","geometry":{"type":"Point","coordinates":[71,30]},"properties":{"qid":"Q843","name":"Pakistan","start":1968,"end":1971,"wikipedia":"https://en.wikipedia.org/wiki/Pakistan"}},{"type":"Feature","geometry":{"type":"Point","coordinates":[103.45194444444445,35.844722222222224]},"properties":{"qid":"Q148","name":"People's Republic of China","start":1975,"end":1975,"wikipedia":"https://en.wikipedia.org/wiki/China"}},{"type":"Feature","geometry":{"type":"Point","coordinates":[39.82583333,21.42194444]},"properties":{"qid":"Q829839","name":"Grand Mosque Seizure","start":1979,"end":1979,"wikipedia":"https://en.wikipedia.org/wiki/Grand_Mosque_seizure"}},{"type":"Feature","geometry":{"type":"Point","coordinates":[-59.5,-51.66666667]},"properties":{"qid":"Q4379537","name":"Falkland Islands sovereignty dispute","start":1982,"end":1982,"wikipedia":"https://en.wikipedia.org/wiki/Falkland_Islands_sovereignty_dispute"}},{"type":"Feature","geometry":{"type":"Point","coordinates":[81,7]},"properties":{"qid":"Q213394","name":"Sri Lankan civil war","start":1983,"end":2009,"wikipedia":"https://en.wikipedia.org/wiki/Sri_Lankan_civil_war","deaths":100001}},{"type":"Feature","geometry":{"type":"Point","coordinates":[-0.4,14.9]},"properties":{"qid":"Q580961","name":"Agacher Strip War","start":1985,"end":1985,"wikipedia":"https://en.wikipedia.org/wiki/Agacher_Strip_War"}},{"type":"Feature","geometry":{"type":"Point","coordinates":[94.4824,29.2097]},"properties":{"qid":"Q3244509","name":"Sumdorong Chu standoff","start":1987,"end":1987,"wikipedia":"https://en.wikipedia.org/wiki/Sumdorong_Chu_standoff"}},{"type":"Feature","geometry":{"type":"Point","coordinates":[155,-6]},"properties":{"qid":"Q10360270","name":"Bougainville conflict","start":1988,"end":1998,"wikipedia":"https://en.wikipedia.org/wiki/Bougainville_conflict"}},{"type":"Feature","geometry":{"type":"Point","coordinates":[-57.611416666667,-25.294386111111]},"properties":{"qid":"Q19601700","name":"1989 Paraguayan coup d'etat","start":1989,"end":1989,"wikipedia":"https://en.wikipedia.org/wiki/1989_Paraguayan_coup_d%27%C3%A9tat"}},{"type":"Feature","geometry":{"type":"Point","coordinates":[44,42]},"properties":{"qid":"Q1070890","name":"Georgian civil war of 1991–1993","start":1991,"end":1993,"wikipedia":"https://en.wikipedia.org/wiki/Georgian_civil_war_of_1991%E2%80%931993"}},{"type":"Feature","geometry":{"type":"Point","coordinates":[90,65]},"properties":{"qid":"Q5167679","name":"dissolution of the Soviet Union","start":1991,"end":1945,"wikipedia":"https://en.wikipedia.org/wiki/Dissolution_of_the_Soviet_Union"}},{"type":"Feature","geometry":{"type":"Point","coordinates":[32.39,1.28]},"properties":{"qid":"Q1036","name":"Uganda","start":1995,"end":1995,"wikipedia":"https://en.wikipedia.org/wiki/Uganda"}},{"type":"Feature","geometry":{"type":"Point","coordinates":[84,28]},"properties":{"qid":"Q2002975","name":"Nepalese Civil War","start":1996,"end":2006,"wikipedia":"https://en.wikipedia.org/wiki/Nepalese_Civil_War"}},{"type":"Feature","geometry":{"type":"Point","coordinates":[32,15]},"properties":{"qid":"Q1049","name":"Sudan","start":1996,"end":1999,"wikipedia":"https://en.wikipedia.org/wiki/Sudan"}},{"type":"Feature","geometry":{"type":"Point","coordinates":[38.25,15.483333]},"properties":{"qid":"Q986","name":"Eritrea","start":1997,"end":1997,"wikipedia":"https://en.wikipedia.org/wiki/Eritrea"}},{"type":"Feature","geometry":{"type":"Point","coordinates":[70.17,33]},"properties":{"qid":"Q179275","name":"insurgency in Khyber Pakhtunkhwa","start":2004,"end":1949,"wikipedia":"https://en.wikipedia.org/wiki/Insurgency_in_Khyber_Pakhtunkhwa"}}]}